NORAD_CAT_ID,OBJECT_NAME,OBJECT_TYPE,EPOCH,MEAN_MOTION,ECCENTRICITY,INCLINATION,RA_OF_ASC_NODE,ARG_OF_PERICENTER,MEAN_ANOMALY,BSTAR,MEAN_MOTION_DOT,MEAN_MOTION_DDOT,TLE_LINE0,TLE_LINE1,TLE_LINE2,SEMIMAJOR_AXIS,PERIOD,APOGEE,PERIGEE,DECAYED
53980.0,STARLINK-5133,PAYLOAD,2023-02-21 13:44:16,15.08845527,0.0001055,53.2134,171.3799,86.6081,273.5032,0.00010423,1.372e-05,0.0,0 STARLINK-5133,1 53980U 22125S   23052.57240830  .00001372  00000-0  10423-3 0  9994,2 53980  53.2134 171.3799 0001055  86.6081 273.5032 15.08845527 21507,6917.863,95.437,540.458,538.999,0.0
53980.0,STARLINK-5133,PAYLOAD,2023-02-21 18:30:24,15.08864066,0.0001017,53.2145,170.4876,80.8177,279.293,0.0004435,6.782e-05,0.0,0 STARLINK-5133,1 53980U 22125S   23052.77111940  .00006782  00000-0  44350-3 0  9991,2 53980  53.2145 170.4876 0001017  80.8177 279.2930 15.08864066 21605,6917.807,95.436,540.375,538.968,0.0
53980.0,STARLINK-5133,PAYLOAD,2023-02-21 20:05:47,15.08869205,0.0001014,53.2142,170.1898,83.8888,276.222,0.00072399,0.00011262,0.0,0 STARLINK-5133,1 53980U 22125S   23052.83735955  .00011262  00000-0  72399-3 0  9999,2 53980  53.2142 170.1898 0001014  83.8888 276.2220 15.08869205 21544,6917.791,95.436,540.358,538.955,0.0
53980.0,STARLINK-5133,PAYLOAD,2023-02-22 00:51:57,15.08843913,7.7e-05,53.214,169.2985,230.7912,129.3012,-1.1346e-05,-4.68e-06,0.0,0 STARLINK-5133,1 53980U 22125S   23053.03607920 -.00000468  00000-0 -11346-4 0  9996,2 53980  53.2140 169.2985 0000770 230.7912 129.3012 15.08843913 21643,6917.868,95.437,540.266,539.201,0.0
53980.0,STARLINK-5133,PAYLOAD,2023-02-22 13:35:02,15.08846267,0.0001075,53.2133,166.9195,108.3434,251.7675,0.00061372,9.495e-05,0.0,0 STARLINK-5133,1 53980U 22125S   23053.56600553  .00009495  00000-0  61372-3 0  9999,2 53980  53.2133 166.9195 0001075 108.3434 251.7675 15.08846267 21651,6917.861,95.437,540.47,538.983,0.0
53980.0,STARLINK-5133,PAYLOAD,2023-02-22 19:56:35,15.08865678,0.0001071,53.2132,165.7306,105.1351,254.9759,0.0019271,0.00030537,0.0,0 STARLINK-5133,1 53980U 22125S   23053.83096282  .00030537  00000-0  19271-2 0  9998,2 53980  53.2132 165.7306 0001071 105.1351 254.9759 15.08865678 21699,6917.802,95.436,540.408,538.926,0.0
53980.0,STARLINK-5133,PAYLOAD,2023-02-23 07:04:13,15.09007435,8.7e-05,53.2136,163.6485,68.2954,291.8131,0.0056038,0.00090457,0.0,0 STARLINK-5133,1 53980U 22125S   23054.29460199  .00090457  00000-0  56038-2 0  9990,2 53980  53.2136 163.6485 0000870  68.2954 291.8131 15.09007435 21832,6917.369,95.427,539.835,538.632,0.0
53980.0,STARLINK-5133,PAYLOAD,2023-02-23 11:50:18,15.09213358,0.0001406,53.2136,162.7558,125.785,234.3273,0.012785,0.00211509,0.0,0 STARLINK-5133,1 53980U 22125S   23054.49326395  .00211509  00000-0  12785-1 0  9994,2 53980  53.2136 162.7558 0001406 125.7850 234.3273 15.09213358 21790,6916.739,95.414,539.577,537.632,0.0
53980.0,STARLINK-5133,PAYLOAD,2023-02-23 16:36:19,15.09407944,7.53e-05,53.2136,161.8632,135.4182,224.6871,0.01495,0.00250068,0.0,0 STARLINK-5133,1 53980U 22125S   23054.69189661  .00250068  00000-0  14950-1 0  9998,2 53980  53.2136 161.8632 0000753 135.4182 224.6871 15.09407944 21896,6916.145,95.402,538.531,537.489,0.0
53980.0,STARLINK-5133,PAYLOAD,2023-02-23 21:22:20,15.09576872,0.0001637,53.2136,160.9704,76.6509,283.4666,0.014185,0.00237942,0.0,0 STARLINK-5133,1 53980U 22125S   23054.89051385  .00237942  00000-0  14185-1 0  9997,2 53980  53.2136 160.9704 0001637  76.6509 283.4666 15.09576872 21855,6915.629,95.391,538.626,536.362,0.0
53980.0,STARLINK-5133,PAYLOAD,2023-02-24 00:32:57,15.09772251,5.54e-05,53.2143,160.3748,146.1378,213.9649,0.017017,0.00289146,0.0,0 STARLINK-5133,1 53980U 22125S   23055.02289075  .00289146  00000-0  17017-1 0  9992,2 53980  53.2143 160.3748 0000554 146.1378 213.9649 15.09772251 21947,6915.032,95.379,537.28,536.514,0.0
53980.0,STARLINK-5133,PAYLOAD,2023-02-24 14:00:01,15.10477352,0.0001172,53.2138,157.8546,88.4384,80.322,-0.00088487,-0.00014993,0.0,0 STARLINK-5133,1 53980U 22125S   23055.58334491 -.00014993  00000-0 -88487-3 0  9995,2 53980  53.2138 157.8546 0001172  88.4384  80.3220 15.10477352 22027,6912.88,95.334,535.555,533.935,0.0
53980.0,STARLINK-5133,PAYLOAD,2023-02-24 22:00:00,15.10462422,0.0001113,53.2138,156.3537,98.4095,83.9058,-0.00044447,-7.681e-05,0.0,0 STARLINK-5133,1 53980U 22125S   23055.91667824 -.00007681  00000-0 -44447-3 0  9995,2 53980  53.2138 156.3537 0001113  98.4095  83.9058 15.10462422  1304,6912.926,95.335,535.56,534.021,0.0
53980.0,STARLINK-5133,PAYLOAD,2023-02-25 14:00:01,15.10485718,0.0001161,53.214,153.354,89.3053,120.1013,-0.0022008,-0.00036753,0.0,0 STARLINK-5133,1 53980U 22125S   23056.58334491 -.00036753  00000-0 -22008-2 0  9990,2 53980  53.2140 153.3540 0001161  89.3053 120.1013 15.10485718 22170,6912.855,95.334,535.522,533.917,0.0
53980.0,STARLINK-5133,PAYLOAD,2023-02-25 22:00:00,15.10482439,0.0001095,53.214,151.8528,87.7119,135.2528,-0.00047824,-8.246e-05,0.0,0 STARLINK-5133,1 53980U 22125S   23056.91667824 -.00008246  00000-0 -47824-3 0  9996,2 53980  53.2140 151.8528 0001095  87.7119 135.2528 15.10482439  1307,6912.865,95.334,535.487,533.973,0.0
53980.0,STARLINK-5133,PAYLOAD,2023-02-26 06:00:00,15.10494507,0.0001164,53.2143,150.3517,100.5425,135.9895,0.0028634,0.00047721,0.0,0 STARLINK-5133,1 53980U 22125S   23057.25001157  .00047721  00000-0  28634-2 0  9991,2 53980  53.2143 150.3517 0001164 100.5425 135.9895 15.10494507 22275,6912.828,95.333,535.497,533.888,0.0
53980.0,STARLINK-5133,PAYLOAD,2023-02-26 14:00:01,15.10525656,0.0001118,53.2142,148.8531,96.9214,153.2173,-0.0074295,-0.00122055,0.0,0 STARLINK-5133,1 53980U 22125S   23057.58334491 -.00122055  00000-0 -74295-2 0  9997,2 53980  53.2142 148.8531 0001118  96.9214 153.2173 15.10525656 22323,6912.733,95.331,535.371,533.825,0.0
53980.0,STARLINK-5133,PAYLOAD,2023-02-27 00:00:00,15.10511051,8.99e-05,53.2143,146.9764,120.8023,236.2796,-0.016374,-0.00263325,0.0,0 STARLINK-5133,1 53980U 22125S   23058.00001157 -.00263325  00000-0 -16374-1 0  9994,2 53980  53.2143 146.9764 0000899 120.8023 236.2796 15.10511051  1303,6912.777,95.332,535.264,534.021,0.0
53980.0,STARLINK-5133,PAYLOAD,2023-02-27 11:07:50,15.10368065,4.91e-05,53.2151,144.8906,115.2093,244.8951,-0.0015364,-0.00025701,0.0,0 STARLINK-5133,1 53980U 22125S   23058.46377599 -.00025701  00000-0 -15364-2 0  9993,2 53980  53.2151 144.8906 0000491 115.2093 244.8951 15.10368065 22463,6913.214,95.341,535.418,534.739,0.0
53980.0,STARLINK-5133,PAYLOAD,2023-02-27 14:00:01,15.10079406,0.000126,53.2143,144.353,105.9127,184.6102,-0.02815,-0.00436552,0.0,0 STARLINK-5133,1 53980U 22125S   23058.58334491 -.00436552  00000-0 -28150-1 0  9996,2 53980  53.2143 144.3530 0001260 105.9127 184.6102 15.10079406 22479,6914.095,95.359,536.831,535.088,0.0
53980.0,STARLINK-5133,PAYLOAD,2023-03-01 02:51:32,15.08997793,0.0001565,53.215,137.4513,119.2203,240.8946,-0.010338,-0.00161843,0.0,0 STARLINK-5133,1 53980U 22125S   23060.11912446 -.00161843  00000-0 -10338-1 0  9997,2 53980  53.2150 137.4513 0001565 119.2203 240.8946 15.08997793 22715,6917.398,95.428,540.346,538.181,0.0
53980.0,STARLINK-5133,PAYLOAD,2023-03-01 14:00:01,15.08841521,0.0001326,53.214,135.3694,89.6625,273.3175,-0.0022259,-0.0003554,0.0,0 STARLINK-5133,1 53980U 22125S   23060.58334491 -.00035540  00000-0 -22259-2 0  9996,2 53980  53.2140 135.3694 0001326  89.6625 273.3175 15.08841521 22783,6917.876,95.437,540.658,538.823,0.0
53980.0,STARLINK-5133,PAYLOAD,2023-03-02 00:00:00,15.08803899,0.0001259,53.2137,133.4972,93.8184,13.6424,0.0034595,0.00055146,0.0,0 STARLINK-5133,1 53980U 22125S   23061.00001157  .00055146  00000-0  34595-2 0  9992,2 53980  53.2137 133.4972 0001259  93.8184  13.6424 15.08803899  1302,6917.991,95.44,540.727,538.985,0.0
53980.0,STARLINK-5133,PAYLOAD,2023-03-02 06:00:00,15.08850419,0.0001327,53.2139,132.3751,92.2595,293.8666,0.0002586,3.831e-05,0.0,0 STARLINK-5133,1 53980U 22125S   23061.25001157  .00003831  00000-0  25860-3 0  9999,2 53980  53.2139 132.3751 0001327  92.2595 293.8666 15.08850419 22888,6917.849,95.437,540.632,538.796,0.0
53980.0,STARLINK-5133,PAYLOAD,2023-03-02 20:00:01,15.08835375,0.0001355,53.2136,129.7569,73.4274,242.9953,-0.0002013,-3.49e-05,0.0,0 STARLINK-5133,1 53980U 22125S   23061.83334491 -.00003490  00000-0 -20130-3 0  9991,2 53980  53.2136 129.7569 0001355  73.4274 242.9953 15.08835375 22976,6917.895,95.438,540.697,538.822,0.0
53980.0,STARLINK-5133,PAYLOAD,2023-03-03 08:00:01,15.08904134,0.0001364,53.2139,127.5122,81.9003,71.9084,-0.0043405,-0.00068827,0.0,0 STARLINK-5133,1 53980U 22125S   23062.33334491 -.00068827  00000-0 -43405-2 0  9991,2 53980  53.2139 127.5122 0001364  81.9003  71.9084 15.08904134 23048,6917.684,95.433,540.493,538.606,0.0
53980.0,STARLINK-5133,PAYLOAD,2023-03-03 14:00:01,15.08857029,0.0001232,53.214,126.3909,81.2313,351.3321,-0.0044296,-0.00070131,0.0,0 STARLINK-5133,1 53980U 22125S   23062.58334491 -.00070131  00000-0 -44296-2 0  9998,2 53980  53.2140 126.3909 0001232  81.2313 351.3321 15.08857029  1305,6917.828,95.436,540.546,538.841,0.0
53980.0,STARLINK-5133,PAYLOAD,2023-03-03 22:00:00,15.08803612,0.0001095,53.2142,124.8929,94.0534,350.0971,0.0025562,0.00040588,0.0,0 STARLINK-5133,1 53980U 22125S   23062.91667824  .00040588  00000-0  25562-2 0  9990,2 53980  53.2142 124.8929 0001095  94.0534 350.0971 15.08803612  1302,6917.992,95.44,540.614,539.099,0.0
53980.0,STARLINK-5133,PAYLOAD,2023-03-04 06:00:00,15.08860741,0.0001187,53.2142,123.3965,98.879,356.8355,0.00032604,4.908e-05,0.0,0 STARLINK-5133,1 53980U 22125S   23063.25001157  .00004908  00000-0  32604-3 0  9991,2 53980  53.2142 123.3965 0001187  98.8790 356.8355 15.08860741 23180,6917.817,95.436,540.503,538.861,0.0
53980.0,STARLINK-5133,PAYLOAD,2023-03-04 14:00:01,15.08828171,0.0001165,53.2143,121.9015,97.7566,9.5902,-0.0018428,-0.00029486,0.0,0 STARLINK-5133,1 53980U 22125S   23063.58334491 -.00029486  00000-0 -18428-2 0  9994,2 53980  53.2143 121.9015 0001165  97.7566   9.5902 15.08828171 23233,6917.917,95.438,540.587,538.976,0.0
